OBJECT_NAME,OBJECT_ID,EPOCH,MEAN_MOTION,ECCENTRICITY,INCLINATION,RA_OF_ASC_NODE,ARG_OF_PERICENTER,MEAN_ANOMALY,EPHEMERIS_TYPE,CLASSIFICATION_TYPE,NORAD_CAT_ID,ELEMENT_SET_NO,REV_AT_EPOCH,BSTAR,MEAN_MOTION_DOT,MEAN_MOTION_DDOT
SCD 1,1993-009B,2026-07-12T02:12:35.605728,14.46127945,.0042008,24.9702,53.8010,41.8001,96.2943,0,U,22490,999,76472,.31098E-4,.299E-5,0
TECHSAT 1B (GO-32),1998-043D,2026-07-11T22:19:44.059584,14.24432954,.0002096,99.0082,186.3145,119.6916,240.4471,0,U,25397,999,45485,.28845E-4,.2E-6,0
SCD 2,1998-060A,2026-07-11T07:49:17.055840,14.45534120,.00168681,24.9954,283.2998,19.0312,25.2104,0,U,25504,999,46382,.3115941E-4,.293E-5,0
DLR-TUBSAT,1999-029B,2026-07-12T05:33:34.852032,14.52432897,.0012964,98.6709,189.5612,274.5741,85.3973,0,U,25757,999,43688,.17067E-4,.21E-6,0
TERRA,1999-068A,2026-07-12T03:22:59.503008,14.61122234,.0003287,97.9443,241.6962,128.6540,242.9221,0,U,25994,999,41325,.49764E-4,.2E-5,0
MAROC-TUBSAT,2001-056D,2026-07-11T23:49:02.509824,13.70263467,.0020627,99.8095,10.3209,79.9870,73.3018,0,U,27004,999,22958,.30799E-4,-.19E-6,0
AQUA,2002-022A,2026-07-12T05:40:06.333024,14.62194503,.0000846,98.4293,163.0223,107.6363,309.2398,0,U,27424,999,28693,.88336E-4,.395E-5,0
SHIYAN-1 (SY-1),2004-012A,2026-07-12T03:58:32.248128,15.34402205,.0004091,97.8694,272.8674,289.6193,70.4607,0,U,28220,999,21492,.26104E-3,.8611E-4,0
AURA,2004-026A,2026-07-12T02:45:16.992000,14.61365176,.0001281,98.3429,149.7767,92.5584,267.5763,0,U,28376,999,16985,.89439E-4,.394E-5,0
IRS-P5 (CARTOSAT-1),2005-017A,2026-07-12T01:00:40.036320,14.91112446,.0001564,97.5306,214.9790,55.5912,304.5454,0,U,28649,999,14752,.66622E-4,.608E-5,0
SINAH 1,2005-043D,2026-07-12T04:52:09.011712,14.64174367,.0014173,98.2889,327.6763,192.9646,167.1194,0,U,28893,999,10418,.37829E-4,.15E-5,0
RESURS-DK 1,2006-021A,2026-07-11T14:59:58.583040,15.13311404,.0006915,69.9312,276.2899,275.2250,84.8127,0,U,29228,999,10627,.6271749E-4,.1011E-4,0
ARIRANG-2 (KOMPSAT-2),2006-031A,2026-07-12T04:08:47.740128,14.64674474,.0014519,97.8315,16.4116,0.5430,128.6037,0,U,29268,999,6513,.33127E-4,.131E-5,0
LAPAN-TUBSAT,2007-001A,2026-07-12T05:40:38.320896,14.85977407,.0013615,98.1352,193.0262,102.2930,257.9809,0,U,29709,999,5487,.10016E-3,.818E-5,0
HAIYANG-1B,2007-010A,2026-07-11T19:50:17.174688,14.31032783,.00145476,98.3512,173.7181,125.1075,235.1475,0,U,31113,999,416,.31073115E-4,.4E-6,0
COSMO-SKYMED 1,2007-023A,2026-07-12T04:45:01.558944,14.97210574,.0001178,97.8843,25.2653,101.7788,258.3565,0,U,31598,999,3353,.11783E-3,.1303E-4,0
TERRASAR-X,2007-026A,2026-07-07T11:29:59.023968,15.19153986,.0001878,97.4461,195.8972,86.9540,273.1909,0,U,31698,999,5630,.14624E-4,.24E-5,0
WORLDVIEW-1 (WV-1),2007-041A,2026-07-12T04:05:06.043776,15.24537821,.0001252,97.3897,312.5622,222.5374,137.5767,0,U,32060,999,4668,.14432E-3,.348E-4,0
YAOGAN-3,2007-055A,2026-07-12T05:30:32.784768,14.90873731,.000154,97.8150,222.8596,82.2545,277.8848,0,U,32289,999,960,.14679E-3,.1391E-4,0
COSMO-SKYMED 2,2007-059A,2026-07-12T03:21:30.008160,14.82149079,.0001437,97.8891,16.3767,93.2700,266.8678,0,U,32376,999,570,.31642E-4,.2E-5,0
RADARSAT-2,2007-061A,2026-07-12T03:46:35.554944,14.29982769,.0001324,98.5784,199.7330,84.5441,275.5892,0,U,32382,999,96952,.33346E-4,.42E-6,0
CARTOSAT-2A,2008-021A,2026-07-12T01:47:03.950592,14.79272644,.0012712,97.7627,240.9317,36.6013,323.6065,0,U,32783,999,98248,-.25609E-5,-.69E-6,0
HUANJING 1A (HJ-1A),2008-041A,2026-07-12T04:21:16.943040,14.84045404,.0020508,97.6692,178.0550,58.8311,301.4911,0,U,33320,999,96211,.14163E-3,.1133E-4,0
HUANJING 1B (HJ-1B),2008-041B,2026-07-12T05:30:24.163776,14.83361242,.0037912,97.6529,181.1969,100.5056,260.0433,0,U,33321,999,96212,.44816E-4,.32E-5,0
GEOEYE 1,2008-042A,2026-07-12T03:43:42.231360,14.64647907,.0004165,98.1328,266.7868,357.0158,3.1019,0,U,33331,999,95380,.46238E-4,.198E-5,0
THEOS,2008-049A,2026-07-12T04:36:29.572416,14.20136655,.0001132,98.5566,249.6623,88.7036,271.4271,0,U,33396,999,92151,-.13195E-6,-.43E-6,0
COSMO-SKYMED 3,2008-054A,2026-07-12T04:11:56.332320,15.07100303,.0015577,97.8259,52.1597,176.0321,184.1032,0,U,33412,999,96070,.92842E-4,.1331E-4,0
YAOGAN-4,2008-061A,2026-07-11T23:49:57.440352,14.83247769,.0014124,97.9305,126.3209,356.2009,3.9095,0,U,33446,999,94934,.7177E-4,.533E-5,0
GOSAT (IBUKI),2009-002A,2026-07-11T19:41:14.729568,14.67536213,.00012403,98.0913,303.5970,92.1118,268.0228,0,U,33492,999,93507,-.974199E-6,-.54E-6,0
DEIMOS-1,2009-041A,2026-07-12T05:08:37.228128,14.75262895,.0002749,97.7427,349.3610,96.9567,263.1955,0,U,35681,999,91057,.71661E-4,.437E-5,0
DUBAISAT-1,2009-041B,2026-07-11T20:20:12.808608,14.75163641,.00101832,98.0079,325.8393,359.6236,0.4964,0,U,35682,999,90873,.73279038E-4,.444E-5,0
